[{"OBJECT_NAME":"STARLINK-36055","OBJECT_ID":"2025-280AB","EPOCH":"2026-03-09T21:27:22.920192","MEAN_MOTION":14.98334393,"ECCENTRICITY":0.00023297,"INCLINATION":70.0024,"RA_OF_ASC_NODE":334.0534,"ARG_OF_PERICENTER":240.6927,"MEAN_ANOMALY":119.4,"EPHEMERIS_TYPE":0,"CLASSIFICATION_TYPE":"U","NORAD_CAT_ID":66846,"ELEMENT_SET_NO":999,"REV_AT_EPOCH":1611,"BSTAR":0.00054216839,"MEAN_MOTION_DOT":6.383e-5,"MEAN_MOTION_DDOT":0},{"OBJECT_NAME":"CZ-6A DEB","OBJECT_ID":"2022-151YE","EPOCH":"2026-03-09T18:13:38.556192","MEAN_MOTION":14.86736267,"ECCENTRICITY":0.00514965,"INCLINATION":98.6419,"RA_OF_ASC_NODE":137.7987,"ARG_OF_PERICENTER":211.6126,"MEAN_ANOMALY":148.1991,"EPHEMERIS_TYPE":0,"CLASSIFICATION_TYPE":"U","NORAD_CAT_ID":55532,"ELEMENT_SET_NO":999,"REV_AT_EPOCH":17090,"BSTAR":0.0037982535,"MEAN_MOTION_DOT":0.00034713,"MEAN_MOTION_DDOT":0}]
